$$SOE
2461295.500000000, A.D. 2026-Sep-12 00:00:00.0000, -5.425738482684798E+08, 9.039238517375386E+07, -6.916019188425934E+07,
2461302.500000000, A.D. 2026-Sep-19 00:00:00.0000, -5.442655579263530E+08, 8.348277247997926E+07, -6.956142952217485E+07,
2461309.500000000, A.D. 2026-Sep-26 00:00:00.0000, -5.458026829050012E+08, 7.654956547130409E+07, -6.994289058266930E+07,
2461316.500000000, A.D. 2026-Oct-03 00:00:00.0000, -5.471852551573800E+08, 6.959479534500952E+07, -7.030452652051167E+07,
2461323.500000000, A.D. 2026-Oct-10 00:00:00.0000, -5.484132948159591E+08, 6.262048000780538E+07, -7.064628766718173E+07,
2461330.500000000, A.D. 2026-Oct-17 00:00:00.0000, -5.494868100829887E+08, 5.562862579673888E+07, -7.096812316153792E+07,
2461337.500000000, A.D. 2026-Oct-24 00:00:00.0000, -5.504057971470973E+08, 4.862122908409999E+07, -7.126998089072248E+07,
2461344.500000000, A.D. 2026-Oct-31 00:00:00.0000, -5.511702400265688E+08, 4.160027770277583E+07, -7.155180745547909E+07,
2461351.500000000, A.D. 2026-Nov-07 00:00:00.0000, -5.517801099994640E+08, 3.456775226921494E+07, -7.181354818456168E+07,
2461358.500000000, A.D. 2026-Nov-14 00:00:00.0000, -5.522353644189171E+08, 2.752562829437772E+07, -7.205514714371955E+07,
2461365.500000000, A.D. 2026-Nov-21 00:00:00.0000, -5.525359467247951E+08, 2.047587976721859E+07, -7.227654691698194E+07,
2461372.500000000, A.D. 2026-Nov-28 00:00:00.0000, -5.526817886501346E+08, 1.342048120534952E+07, -7.247768831435648E+07,
2461379.500000000, A.D. 2026-Dec-05 00:00:00.0000, -5.526728110031940E+08, 6.361407519977354E+06, -7.265851039132269E+07,
2461386.500000000, A.D. 2026-Dec-12 00:00:00.0000, -5.525089228594195E+08, -6.993651905347444E+05, -7.281895054039831E+07,
2461393.500000000, A.D. 2026-Dec-19 00:00:00.0000, -5.521900210499808E+08, -7.759857909536544E+06, -7.295894448066480E+07,
2461400.500000000, A.D. 2026-Dec-26 00:00:00.0000, -5.517159900898013E+08, -1.481808689895504E+07, -7.307842620300525E+07,
2461407.500000000, A.D. 2027-Jan-02 00:00:00.0000, -5.510867022703228E+08, -2.187206201214615E+07, -7.317732791193917E+07,
2461414.500000000, A.D. 2027-Jan-09 00:00:00.0000, -5.503020178013098E+08, -2.891978509939860E+07, -7.325557997306946E+07,
2461421.500000000, A.D. 2027-Jan-16 00:00:00.0000, -5.493617849678456E+08, -3.595924849401955E+07, -7.331311086856307E+07,
2461428.500000000, A.D. 2027-Jan-23 00:00:00.0000, -5.482658402582062E+08, -4.298843361528855E+07, -7.334984716799657E+07,
2461435.500000000, A.D. 2027-Jan-30 00:00:00.0000, -5.470140082765350E+08, -5.000530973269955E+07, -7.336571353551912E+07,
2461442.500000000, A.D. 2027-Feb-06 00:00:00.0000, -5.456061010170807E+08, -5.700783254826944E+07, -7.336063278431068E+07,
2461449.500000000, A.D. 2027-Feb-13 00:00:00.0000, -5.440419169617950E+08, -6.399394137444201E+07, -7.333452583632571E+07,
2461456.500000000, A.D. 2027-Feb-20 00:00:00.0000, -5.423212423672726E+08, -7.096155569627327E+07, -7.328731143538447E+07,
2461463.500000000, A.D. 2027-Feb-27 00:00:00.0000, -5.404438533484240E+08, -7.790857432891315E+07, -7.321890600496037E+07,
2461470.500000000, A.D. 2027-Mar-06 00:00:00.0000, -5.384095157439204E+08, -8.483287524382162E+07, -7.312922377097124E+07,
2461477.500000000, A.D. 2027-Mar-13 00:00:00.0000, -5.362179843654064E+08, -9.173231400980344E+07, -7.301817683556476E+07,
2461484.500000000, A.D. 2027-Mar-20 00:00:00.0000, -5.338690027614592E+08, -9.860472167939176E+07, -7.288567516677532E+07,
2461491.500000000, A.D. 2027-Mar-27 00:00:00.0000, -5.313623032962902E+08, -1.054479026653092E+08, -7.273162656778196E+07,
2461498.500000000, A.D. 2027-Apr-03 00:00:00.0000, -5.286976073423358E+08, -1.122596326501671E+08, -7.255593664852782E+07,
2461505.500000000, A.D. 2027-Apr-10 00:00:00.0000, -5.258746255274091E+08, -1.190376565016278E+08, -7.235850880355185E+07,
2461512.500000000, A.D. 2027-Apr-17 00:00:00.0000, -5.228930580163432E+08, -1.257796862026755E+08, -7.213924419931625E+07,
2461519.500000000, A.D. 2027-Apr-24 00:00:00.0000, -5.197525947502888E+08, -1.324833988545006E+08, -7.189804178352310E+07,
2461526.500000000, A.D. 2027-May-01 00:00:00.0000, -5.164529153468980E+08, -1.391464347193660E+08, -7.163479834185734E+07,
2461533.500000000, A.D. 2027-May-08 00:00:00.0000, -5.129936883572450E+08, -1.457663945499234E+08, -7.134940856946319E+07,
2461540.500000000, A.D. 2027-May-15 00:00:00.0000, -5.093745713798767E+08, -1.523408352461816E+08, -7.104176494225866E+07,
2461547.500000000, A.D. 2027-May-22 00:00:00.0000, -5.055952136002008E+08, -1.588672664263882E+08, -7.071175745698276E+07,
2461554.500000000, A.D. 2027-May-29 00:00:00.0000, -5.016552574048960E+08, -1.653431493741249E+08, -7.035927366845390E+07,
2461561.500000000, A.D. 2027-Jun-05 00:00:00.0000, -4.975543381919073E+08, -1.717658952226584E+08, -6.998419884964746E+07,
2461568.500000000, A.D. 2027-Jun-12 00:00:00.0000, -4.932920843882656E+08, -1.781328619373171E+08, -6.958641605533451E+07,
2461575.500000000, A.D. 2027-Jun-19 00:00:00.0000, -4.888681180121307E+08, -1.844413510238427E+08, -6.916580613567582E+07,
2461582.500000000, A.D. 2027-Jun-26 00:00:00.0000, -4.842820555062672E+08, -1.906886042167927E+08, -6.872224774733204E+07,
2461589.500000000, A.D. 2027-Jul-03 00:00:00.0000, -4.795335087183589E+08, -1.968718001318082E+08, -6.825561737416497E+07,
2461596.500000000, A.D. 2027-Jul-10 00:00:00.0000, -4.746220859994607E+08, -2.029880508645136E+08, -6.776578936081386E+07,
2461603.500000000, A.D. 2027-Jul-17 00:00:00.0000, -4.695473933930291E+08, -2.090343985659403E+08, -6.725263596630898E+07,
2461610.500000000, A.D. 2027-Jul-24 00:00:00.0000, -4.643090357677493E+08, -2.150078120478760E+08, -6.671602745796251E+07,
2461617.500000000, A.D. 2027-Jul-31 00:00:00.0000, -4.589066174933380E+08, -2.209051831727083E+08, -6.615583226491632E+07,
2461624.500000000, A.D. 2027-Aug-07 00:00:00.0000, -4.533397428715477E+08, -2.267233218655282E+08, -6.557191707984017E+07,
2461631.500000000, A.D. 2027-Aug-14 00:00:00.0000, -4.476080186359944E+08, -2.324589499910285E+08, -6.496414671970342E+07,
2461638.500000000, A.D. 2027-Aug-21 00:00:00.0000, -4.417110579171924E+08, -2.381086974486984E+08, -6.433238407905664E+07,
2461645.500000000, A.D. 2027-Aug-28 00:00:00.0000, -4.356484822588553E+08, -2.436690992715157E+08, -6.367649039433898E+07,
2461652.500000000, A.D. 2027-Sep-04 00:00:00.0000, -4.294199228847724E+08, -2.491365912125786E+08, -6.299632550850074E+07,
2461659.500000000, A.D. 2027-Sep-11 00:00:00.0000, -4.230250226306554E+08, -2.545075044669876E+08, -6.229174806424627E+07,
2461666.500000000, A.D. 2027-Sep-18 00:00:00.0000, -4.164634384289345E+08, -2.597780601648230E+08, -6.156261569388351E+07,
2461673.500000000, A.D. 2027-Sep-25 00:00:00.0000, -4.097348441413897E+08, -2.649443636976670E+08, -6.080878523609404E+07,
2461680.500000000, A.D. 2027-Oct-02 00:00:00.0000, -4.028389336905806E+08, -2.700023988347646E+08, -6.003011298737101E+07,
2461687.500000000, A.D. 2027-Oct-09 00:00:00.0000, -3.957754244956537E+08, -2.749480216162823E+08, -5.922645499382524E+07,
2461694.500000000, A.D. 2027-Oct-16 00:00:00.0000, -3.885440611800910E+08, -2.797769540616107E+08, -5.839766739734805E+07,
2461701.500000000, A.D. 2027-Oct-23 00:00:00.0000, -3.811446193262032E+08, -2.844847776818714E+08, -5.754360686488241E+07,
2461708.500000000, A.D. 2027-Oct-30 00:00:00.0000, -3.735769089412229E+08, -2.890669261696410E+08, -5.666413109049143E+07,
2461715.500000000, A.D. 2027-Nov-06 00:00:00.0000, -3.658407788428274E+08, -2.935186761202330E+08, -5.575909917707306E+07,
2461722.500000000, A.D. 2027-Nov-13 00:00:00.0000, -3.579361239986463E+08, -2.978351378427892E+08, -5.482837189159580E+07,
2461729.500000000, A.D. 2027-Nov-20 00:00:00.0000, -3.498628929730352E+08, -3.020112484295040E+08, -5.387181224570249E+07,
2461736.500000000, A.D. 2027-Nov-27 00:00:00.0000, -3.416210939251772E+08, -3.060417641004850E+08, -5.288928631539415E+07,
2461743.500000000, A.D. 2027-Dec-04 00:00:00.0000, -3.332108012492453E+08, -3.099212508915345E+08, -5.188066404756053E+07,
2461750.500000000, A.D. 2027-Dec-11 00:00:00.0000, -3.246321634806540E+08, -3.136440746307614E+08, -5.084582009053984E+07,
2461757.500000000, A.D. 2027-Dec-18 00:00:00.0000, -3.158854122749397E+08, -3.172043905270540E+08, -4.978463471183077E+07,
2461764.500000000, A.D. 2027-Dec-25 00:00:00.0000, -3.069708723985955E+08, -3.205961323589703E+08, -4.869699482878146E+07,
2461771.500000000, A.D. 2028-Jan-01 00:00:00.0000, -2.978889727927482E+08, -3.238130012383753E+08, -4.758279516806157E+07,
$$EOE